{
    "links": {
        "self": "http://www.neowsapp.com/rest/v1/neo/3325655?api_key=iIulBulltgU6a56xZRHN4H3l9WmuAYTsLGpBGhQ2"
    },
    "id": "3325655",
    "neo_reference_id": "3325655",
    "name": "(2006 EH)",
    "designation": "2006 EH",
    "nasa_jpl_url": "http://ssd.jpl.nasa.gov/sbdb.cgi?sstr=3325655",
    "absolute_magnitude_h": 20.7,
    "estimated_diameter": {
        "kilometers": {
            "estimated_diameter_min": 0.1925550782,
            "estimated_diameter_max": 0.4305662442
        },
        "meters": {
            "estimated_diameter_min": 192.5550781879,
            "estimated_diameter_max": 430.566244241
        },
        "miles": {
            "estimated_diameter_min": 0.1196481415,
            "estimated_diameter_max": 0.2675413778
        },
        "feet": {
            "estimated_diameter_min": 631.7424027221,
            "estimated_diameter_max": 1412.6189567557
        }
    },
    "is_potentially_hazardous_asteroid": false,
    "close_approach_data": [
        {
            "close_approach_date": "2005-10-23",
            "close_approach_date_full": "2005-Oct-23 00:02",
            "epoch_date_close_approach": 1130025720000,
            "relative_velocity": {
                "kilometers_per_second": "18.8709375509",
                "kilometers_per_hour": "67935.3751831201",
                "miles_per_hour": "42212.4002075337"
            },
            "miss_distance": {
                "astronomical": "0.4496755527",
                "lunar": "174.9237900003",
                "kilometers": "67270504.874992749",
                "miles": "41799953.4397239762"
            },
            "orbiting_body": "Earth"
        }
    ],
    "orbital_data": {
        "orbit_id": "10",
        "orbit_determination_date": "2017-04-06 09:10:34",
        "first_observation_date": "2006-03-02",
        "last_observation_date": "2006-03-25",
        "data_arc_in_days": 23,
        "observations_used": 20,
        "orbit_uncertainty": "8",
        "minimum_orbit_intersection": ".299467",
        "jupiter_tisserand_invariant": "2.972",
        "epoch_osculation": "2453803.5",
        "eccentricity": ".6172549883159156",
        "semi_major_axis": "2.676002016804054",
        "inclination": "24.43437567947007",
        "ascending_node_longitude": "170.4161713226482",
        "orbital_period": "1598.924957654078",
        "perihelion_distance": "1.024226423188301",
        "perihelion_argument": "280.1359518382202",
        "aphelion_distance": "4.327777610419806",
        "perihelion_time": "2453709.028165612496",
        "mean_anomaly": "21.27045438667758",
        "mean_motion": ".2251512794747963",
        "equinox": "J2000",
        "orbit_class": {
            "orbit_class_type": "AMO",
            "orbit_class_description": "Near-Earth asteroid orbits similar to that of 1221 Amor",
            "orbit_class_range": "1.017 AU < q (perihelion) < 1.3 AU"
        }
    },
    "is_sentry_object": false
}